start=new Date('2023-06-30T00:00:00.000Z').valueOf();
sats=[{"PERIOD":"95.438","TIME_SYSTEM":"UTC","OBJECT_TYPE":"PAYLOAD","ARG_OF_PERICENTER":"89.4550","FILE":"3945559","MEAN_MOTION_DDOT":"0.0000000000000","SEMIMAJOR_AXIS":"6917.883","ECCENTRICITY":"0.00008900","INCLINATION":"53.2172","MEAN_MOTION_DOT":"0.00000899","NORAD_CAT_ID":"51106","REV_AT_EPOCH":"8133","APOAPSIS":"540.364","CLASSIFICATION_TYPE":"U","BSTAR":"0.00007453700000","GP_ID":"234620446","CENTER_NAME":"EARTH","REF_FRAME":"TEME","EPOCH":"2023-06-29T00:47:33.201024","TLE_LINE1":"1 51106U 22005C   23180.03302316  .00000899  00000-0  74537-4 0  9990","OBJECT_ID":"2022-005C","ELEMENT_SET_NO":"999","LAUNCH_DATE":"2022-01-19","EPHEMERIS_TYPE":"0","RA_OF_ASC_NODE":"29.4141","COUNTRY_CODE":"US","MEAN_MOTION":"15.08839071","DECAY_DATE":null,"OBJECT_NAME":"STARLINK-3176","PERIAPSIS":"539.133","MEAN_ANOMALY":"270.6544","MEAN_ELEMENT_THEORY":"SGP4","RCS_SIZE":"LARGE","SITE":"AFETR","TLE_LINE2":"2 51106  53.2172  29.4141 0000890  89.4550 270.6544 15.08839071 81339"},{"OBJECT_NAME":"STARLINK-3368","MEAN_ANOMALY":"267.0662","PERIAPSIS":"538.976","MEAN_ELEMENT_THEORY":"SGP4","RCS_SIZE":"LARGE","SITE":"AFETR","TLE_LINE2":"2 51107  53.2183  40.5980 0001107  93.0457 267.0662 15.08841157 81166","MEAN_MOTION":"15.08841157","DECAY_DATE":null,"ELEMENT_SET_NO":"999","OBJECT_ID":"2022-005D","LAUNCH_DATE":"2022-01-19","RA_OF_ASC_NODE":"40.5980","EPHEMERIS_TYPE":"0","COUNTRY_CODE":"US","CENTER_NAME":"EARTH","REF_FRAME":"TEME","EPOCH":"2023-06-28T18:24:41.238144","TLE_LINE1":"1 51107U 22005D   23179.76714396  .00001812  00000-0  13190-3 0  9997","CLASSIFICATION_TYPE":"U","BSTAR":"0.00013190000000","GP_ID":"234610302","SEMIMAJOR_AXIS":"6917.877","ECCENTRICITY":"0.00011070","INCLINATION":"53.2183","MEAN_MOTION_DOT":"0.00001812","NORAD_CAT_ID":"51107","REV_AT_EPOCH":"8116","APOAPSIS":"540.508","FILE":"3945172","MEAN_MOTION_DDOT":"0.0000000000000","PERIOD":"95.437","OBJECT_TYPE":"PAYLOAD","TIME_SYSTEM":"UTC","ARG_OF_PERICENTER":"93.0457"},{"EPOCH":"2023-06-29T18:43:17.303232","TLE_LINE1":"1 51108U 22005E   23180.78006138  .00001436  00000-0  10825-3 0  9994","REF_FRAME":"TEME","CENTER_NAME":"EARTH","COUNTRY_CODE":"US","EPHEMERIS_TYPE":"0","LAUNCH_DATE":"2022-01-19","RA_OF_ASC_NODE":"26.0619","ELEMENT_SET_NO":"999","OBJECT_ID":"2022-005E","MEAN_MOTION":"15.08846508","DECAY_DATE":null,"TLE_LINE2":"2 51108  53.2180  26.0619 0001290  90.1646 269.9494 15.08846508 81443","SITE":"AFETR","MEAN_ELEMENT_THEORY":"SGP4","RCS_SIZE":"LARGE","OBJECT_NAME":"STARLINK-3362","MEAN_ANOMALY":"269.9494","PERIAPSIS":"538.833","ARG_OF_PERICENTER":"90.1646","TIME_SYSTEM":"UTC","OBJECT_TYPE":"PAYLOAD","PERIOD":"95.437","FILE":"3945941","MEAN_MOTION_DDOT":"0.0000000000000","APOAPSIS":"540.618","NORAD_CAT_ID":"51108","REV_AT_EPOCH":"8144","ECCENTRICITY":"0.00012900","INCLINATION":"53.2180","MEAN_MOTION_DOT":"0.00001436","SEMIMAJOR_AXIS":"6917.860","GP_ID":"234629706","BSTAR":"0.00010825000000","CLASSIFICATION_TYPE":"U"},{"ECCENTRICITY":"0.00011380","INCLINATION":"53.2180","MEAN_MOTION_DOT":"0.00000761","SEMIMAJOR_AXIS":"6917.877","APOAPSIS":"540.530","NORAD_CAT_ID":"51109","REV_AT_EPOCH":"8132","CLASSIFICATION_TYPE":"U","GP_ID":"234614168","BSTAR":"0.00006589100000","PERIOD":"95.437","ARG_OF_PERICENTER":"89.6291","OBJECT_TYPE":"PAYLOAD","TIME_SYSTEM":"UTC","FILE":"3945307","MEAN_MOTION_DDOT":"0.0000000000000","MEAN_MOTION":"15.08840993","DECAY_DATE":null,"OBJECT_NAME":"STARLINK-3358","PERIAPSIS":"538.955","MEAN_ANOMALY":"270.4831","TLE_LINE2":"2 51109  53.2180  29.8269 0001138  89.6291 270.4831 15.08840993 81327","SITE":"AFETR","MEAN_ELEMENT_THEORY":"SGP4","RCS_SIZE":"LARGE","REF_FRAME":"TEME","CENTER_NAME":"EARTH","EPOCH":"2023-06-28T22:36:27.040896","TLE_LINE1":"1 51109U 22005F   23179.94197964  .00000761  00000-0  65891-4 0  9993","EPHEMERIS_TYPE":"0","LAUNCH_DATE":"2022-01-19","RA_OF_ASC_NODE":"29.8269","ELEMENT_SET_NO":"999","OBJECT_ID":"2022-005F","COUNTRY_CODE":"US"},{"CENTER_NAME":"EARTH","REF_FRAME":"TEME","TLE_LINE1":"1 51110U 22005G   23180.77366709  .00002004  00000-0  14397-3 0  9999","EPOCH":"2023-06-29T18:34:04.836576","OBJECT_ID":"2022-005G","ELEMENT_SET_NO":"999","RA_OF_ASC_NODE":"26.1159","LAUNCH_DATE":"2022-01-19","EPHEMERIS_TYPE":"0","COUNTRY_CODE":"US","DECAY_DATE":null,"MEAN_MOTION":"15.08835852","PERIAPSIS":"539.085","MEAN_ANOMALY":"248.7210","OBJECT_NAME":"STARLINK-3344","RCS_SIZE":"LARGE","MEAN_ELEMENT_THEORY":"SGP4","TLE_LINE2":"2 51110  53.2185  26.1159 0000973 111.3887 248.7210 15.08835852 81453","SITE":"AFETR","PERIOD":"95.438","OBJECT_TYPE":"PAYLOAD","TIME_SYSTEM":"UTC","ARG_OF_PERICENTER":"111.3887","MEAN_MOTION_DDOT":"0.0000000000000","FILE":"3945943","SEMIMAJOR_AXIS":"6917.893","INCLINATION":"53.2185","MEAN_MOTION_DOT":"0.00002004","ECCENTRICITY":"0.00009730","REV_AT_EPOCH":"8145","NORAD_CAT_ID":"51110","APOAPSIS":"540.431","CLASSIFICATION_TYPE":"U","BSTAR":"0.00014397000000","GP_ID":"234629723"},{"MEAN_MOTION_DDOT":"0.0000000000000","FILE":"3945943","PERIOD":"95.437","TIME_SYSTEM":"UTC","OBJECT_TYPE":"PAYLOAD","ARG_OF_PERICENTER":"87.9603","CLASSIFICATION_TYPE":"U","BSTAR":"0.00001900200000","GP_ID":"234629724","SEMIMAJOR_AXIS":"6917.876","MEAN_MOTION_DOT":"0.00000015","INCLINATION":"53.2183","ECCENTRICITY":"0.00010450","REV_AT_EPOCH":"8145","NORAD_CAT_ID":"51111","APOAPSIS":"540.463","OBJECT_ID":"2022-005H","ELEMENT_SET_NO":"999","EPHEMERIS_TYPE":"0","LAUNCH_DATE":"2022-01-19","RA_OF_ASC_NODE":"25.9134","COUNTRY_CODE":"US","CENTER_NAME":"EARTH","REF_FRAME":"TEME","TLE_LINE1":"1 51111U 22005H   23180.81318612  .00000015  00000-0  19002-4 0  9994","EPOCH":"2023-06-29T19:30:59.280768","MEAN_ANOMALY":"272.1509","PERIAPSIS":"539.018","OBJECT_NAME":"STARLINK-3173","RCS_SIZE":"LARGE","MEAN_ELEMENT_THEORY":"SGP4","TLE_LINE2":"2 51111  53.2183  25.9134 0001045  87.9603 272.1509 15.08841583 81457","SITE":"AFETR","DECAY_DATE":null,"MEAN_MOTION":"15.08841583"},{"TIME_SYSTEM":"UTC","OBJECT_TYPE":"PAYLOAD","ARG_OF_PERICENTER":"81.7110","PERIOD":"95.438","MEAN_MOTION_DDOT":"0.0000000000000","FILE":"3945308","REV_AT_EPOCH":"8132","NORAD_CAT_ID":"51112","APOAPSIS":"540.508","SEMIMAJOR_AXIS":"6917.881","MEAN_MOTION_DOT":"0.00000198","INCLINATION":"53.2177","ECCENTRICITY":"0.00011020","BSTAR":"0.00003053900000","GP_ID":"234613687","CLASSIFICATION_TYPE":"U","TLE_LINE1":"1 51112U 22005J   23179.90790674  .00000198  00000-0  30539-4 0  9995","EPOCH":"2023-06-28T21:47:23.142336","CENTER_NAME":"EARTH","REF_FRAME":"TEME","COUNTRY_CODE":"US","OBJECT_ID":"2022-005J","ELEMENT_SET_NO":"999","LAUNCH_DATE":"2022-01-19","EPHEMERIS_TYPE":"0","RA_OF_ASC_NODE":"29.9793","DECAY_DATE":null,"MEAN_MOTION":"15.08839944","RCS_SIZE":"LARGE","MEAN_ELEMENT_THEORY":"SGP4","TLE_LINE2":"2 51112  53.2177  29.9793 0001102  81.7110 278.4007 15.08839944 81321","SITE":"AFETR","PERIAPSIS":"538.983","MEAN_ANOMALY":"278.4007","OBJECT_NAME":"STARLINK-3374"},{"PERIAPSIS":"538.897","MEAN_ANOMALY":"259.3710","OBJECT_NAME":"STARLINK-3372","RCS_SIZE":"LARGE","MEAN_ELEMENT_THEORY":"SGP4","TLE_LINE2":"2 51113  53.2179  30.3247 0001232 100.7421 259.3710 15.08838821 81305","SITE":"AFETR","DECAY_DATE":null,"MEAN_MOTION":"15.08838821","ELEMENT_SET_NO":"999","OBJECT_ID":"2022-005K","LAUNCH_DATE":"2022-01-19","EPHEMERIS_TYPE":"0","RA_OF_ASC_NODE":"30.3247","COUNTRY_CODE":"US","CENTER_NAME":"EARTH","REF_FRAME":"TEME","TLE_LINE1":"1 51113U 22005K   23179.83062801 -.00000358  00000-0 -43768-5 0  9991","EPOCH":"2023-06-28T19:56:06.260064","CLASSIFICATION_TYPE":"U","BSTAR":"-0.00000437680000","GP_ID":"234614184","SEMIMAJOR_AXIS":"6917.884","INCLINATION":"53.2179","MEAN_MOTION_DOT":"-0.00000358","ECCENTRICITY":"0.00012320","REV_AT_EPOCH":"8130","NORAD_CAT_ID":"51113","APOAPSIS":"540.601","MEAN_MOTION_DDOT":"0.0000000000000","FILE":"3945308","PERIOD":"95.438","TIME_SYSTEM":"UTC","OBJECT_TYPE":"PAYLOAD","ARG_OF_PERICENTER":"100.7421"},{"PERIOD":"95.438","ARG_OF_PERICENTER":"91.7234","OBJECT_TYPE":"PAYLOAD","TIME_SYSTEM":"UTC","FILE":"3945942","MEAN_MOTION_DDOT":"0.0000000000000","ECCENTRICITY":"0.00010410","MEAN_MOTION_DOT":"0.00003283","INCLINATION":"53.2179","SEMIMAJOR_AXIS":"6917.887","APOAPSIS":"540.472","NORAD_CAT_ID":"51114","REV_AT_EPOCH":"8145","CLASSIFICATION_TYPE":"U","GP_ID":"234629736","BSTAR":"0.00022429000000","REF_FRAME":"TEME","CENTER_NAME":"EARTH","EPOCH":"2023-06-29T18:37:59.512800","TLE_LINE1":"1 51114U 22005L   23180.77638325  .00003283  00000-0  22429-3 0  9994","EPHEMERIS_TYPE":"0","LAUNCH_DATE":"2022-01-19","RA_OF_ASC_NODE":"26.0771","ELEMENT_SET_NO":"999","OBJECT_ID":"2022-005L","COUNTRY_CODE":"US","MEAN_MOTION":"15.08837961","DECAY_DATE":null,"OBJECT_NAME":"STARLINK-3375","PERIAPSIS":"539.031","MEAN_ANOMALY":"268.3878","SITE":"AFETR","TLE_LINE2":"2 51114  53.2179  26.0771 0001041  91.7234 268.3878 15.08837961 81454","MEAN_ELEMENT_THEORY":"SGP4","RCS_SIZE":"LARGE"},{"MEAN_ELEMENT_THEORY":"SGP4","RCS_SIZE":"LARGE","TLE_LINE2":"2 51115  53.2179  25.8987 0000959  85.5175 274.5927 15.08838961 81458","SITE":"AFETR","OBJECT_NAME":"STARLINK-3397","MEAN_ANOMALY":"274.5927","PERIAPSIS":"539.085","MEAN_MOTION":"15.08838961","DECAY_DATE":null,"COUNTRY_CODE":"US","ELEMENT_SET_NO":"999","OBJECT_ID":"2022-005M","LAUNCH_DATE":"2022-01-19","EPHEMERIS_TYPE":"0","RA_OF_ASC_NODE":"25.8987","EPOCH":"2023-06-29T19:36:17.231904","TLE_LINE1":"1 51115U 22005M   23180.81686611  .00000332  00000-0  38937-4 0  9995","CENTER_NAME":"EARTH","REF_FRAME":"TEME","BSTAR":"0.00003893700000","GP_ID":"234631587","CLASSIFICATION_TYPE":"U","NORAD_CAT_ID":"51115","REV_AT_EPOCH":"8145","APOAPSIS":"540.412","SEMIMAJOR_AXIS":"6917.884","ECCENTRICITY":"0.00009590","MEAN_MOTION_DOT":"0.00000332","INCLINATION":"53.2179","FILE":"3946003","MEAN_MOTION_DDOT":"0.0000000000000","OBJECT_TYPE":"PAYLOAD","TIME_SYSTEM":"UTC","ARG_OF_PERICENTER":"85.5175","PERIOD":"95.438"}];
